FORMOSAT 7-3            
1 44343U 19036E   26196.79827990  .00002519  00000+0  13039-3 0  9997
2 44343  23.9998 341.5936 0000203 233.9727 126.0758 15.09997448387574
FORMOSAT 7-1            
1 44349U 19036L   26196.31708517  .00001266  00000+0  82510-4 0  9993
2 44349  23.9965 202.7341 0000952 131.3090 228.7493 14.96612032388875
FORMOSAT 7-4            
1 44350U 19036M   26196.27300240  .00001322  00000+0  87277-4 0  9999
2 44350  23.9978 265.1424 0001188 142.3824 217.6760 14.96610033388283
FORMOSAT 7-2            
1 44351U 19036N   26196.56205992  .00001497  00000+0  10230-3 0  9997
2 44351  23.9989 317.5071 0000688 133.1454 226.9104 14.96610547387843
FORMOSAT 7-6            
1 44353U 19036Q   26196.02825993  .00001428  00000+0  96358-4 0  9999
2 44353  23.9966 141.9137 0001316  73.0571 287.0074 14.96612380385998
FORMOSAT 7-5            
1 44358U 19036V   26196.00570424  .00001494  00000+0  10214-3 0  9997
2 44358  23.9987  80.8187 0000398 130.3890 229.6646 14.96591580386527
METEOR-M2 2             
1 44387U 19038A   26196.90502997 -.00000267  00000+0 -95829-4 0  9995
2 44387  98.9154 184.6163 0000690   2.0537 358.0643 14.24372068365386
GLOBAL-4                
1 44499U 19054E   26195.95819030  .00037636  00000+0  34612-3 0  9990
2 44499  45.0057  75.8398 0005342 195.2427 164.8311 15.67063678384713
ZY-1 02D                
1 44528U 19059A   26196.85939713 -.00000089  00000+0 -15293-4 0  9998
2 44528  98.6716 258.4179 0003107 297.0023  63.0844 14.35267847358459
TAURUS-1 (JINNIUZUO 1)  
1 44530U 19059C   26196.85556133  .00003269  00000+0  52496-3 0  9998
2 44530  98.6433   3.4712 0008037 213.4950 146.5748 14.72373916362863
ZHUHAI-1 03B            
1 44536U 19060C   26196.88575992  .00019695  00000+0  28760-3 0  9990
2 44536  97.5555 356.2397 0008469 202.7486 157.3394 15.55659462380787
ZHUHAI-1 03D            
1 44538U 19060E   26196.87686376  .00018869  00000+0  32181-3 0  9994
2 44538  97.5402 348.0997 0007558 188.5776 171.5347 15.51370362380529
ZHUHAI-1 03E            
1 44539U 19060F   26196.87020049  .00010335  00000+0  24500-3 0  9990
2 44539  97.5645 347.8362 0004408 272.7453  87.3289 15.41936003380181
GAOFEN-7                
1 44703U 19072A   26196.87545523  .00001914  00000+0  87940-4 0  9996
2 44703  97.5704 257.6144 0017400 301.3759  58.5774 15.21517147372003
JILIN-1 GAOFEN 2A       
1 44777U 19075A   26196.79588844  .00007999  00000+0  20244-3 0  9996
2 44777  97.4966 281.2683 0005126 352.8026   7.3145 15.40024134369284
NINGXIA-1 1             
1 44779U 19076A   26196.82717707 -.00000066  00000+0  41134-4 0  9996
2 44779  45.0067  51.8642 0011525 292.3222  67.6390 14.02042105341870
NINGXIA-1 5             
1 44783U 19076E   26196.83948274 -.00000208  00000+0 -50609-4 0  9993
2 44783  45.0064  51.1416 0011403 283.1933  76.7629 14.02089338341792
KL-ALPHA A              
1 44785U 19077A   26196.82372572  .00000056  00000+0  62593-4 0  9991
2 44785  88.9230 219.4326 0012367  35.1496 325.0472 13.56045859329614
CARTOSAT-3              
1 44804U 19081A   26196.80788708  .00001456  00000+0  72342-4 0  9996
2 44804  97.4296 258.2117 0012999  56.8541 303.3939 15.19186476367817
JILIN-1 GAOFEN 2B       
1 44836U 19086A   26196.76764404  .00003260  00000+0  14989-3 0  9995
2 44836  97.4874 268.5832 0013289 213.6527 146.3866 15.21003563364833
TIANQIN 1 (CAS-6)       
1 44879U 19093A   26196.85992709  .00001780  00000+0  16565-3 0  9998
2 44879  97.7816 280.4940 0009961 325.9911  34.0670 14.95564307356338
ETRSS-1                 
1 44880U 19093B   26196.85829909  .00001969  00000+0  18059-3 0  9990
2 44880  97.7831 280.9771 0010072 325.9401  34.1172 14.96012365356345
TIANYAN 01              
1 44881U 19093C   26196.85409093 -.00000151  00000+0 -11010-4 0  9994
2 44881  97.7526 268.3858 0013571 359.4719   0.6480 14.86559841355673
TIANYAN 02              
1 44882U 19093D   26196.83428498  .00002652  00000+0  18850-3 0  9997
2 44882  97.7937 291.9060 0012248 286.1650  73.8228 15.05533911356920
CBERS 4A                
1 44883U 19093E   26196.86330222 -.00000010  00000+0  55308-5 0  9996
2 44883  98.0185 264.3263 0001455 131.2383 228.8955 14.81443054355323
WEILAI 1R               
1 44884U 19093F   26196.85781598  .00002327  00000+0  18741-3 0  9992
2 44884  97.7894 286.7958 0015510 306.2032  53.7757 15.00869627356728
FLORIPASAT-1            
1 44885U 19093G   26196.83326216  .00000915  00000+0  70495-4 0  9999
2 44885  97.7926 291.2796 0010819 339.1908  20.8875 15.04141583356959
SHUNTIAN                
1 44886U 19093H   26196.85022557  .00001057  00000+0  10123-3 0  9992
2 44886  97.8011 284.8660 0010888 335.5239  24.5463 14.95278525356463
