OBJECT_NAME,OBJECT_ID,EPOCH,MEAN_MOTION,ECCENTRICITY,INCLINATION,RA_OF_ASC_NODE,ARG_OF_PERICENTER,MEAN_ANOMALY,EPHEMERIS_TYPE,CLASSIFICATION_TYPE,NORAD_CAT_ID,ELEMENT_SET_NO,REV_AT_EPOCH,BSTAR,MEAN_MOTION_DOT,MEAN_MOTION_DDOT
FORMOSAT 7-3,2019-036E,2026-07-15T19:09:31.383360,15.09997448,.0000203,23.9998,341.5936,233.9727,126.0758,0,U,44343,999,38757,.13039E-3,.2519E-4,0
FORMOSAT 7-1,2019-036L,2026-07-15T07:36:36.158688,14.96612032,.00009521,23.9965,202.7341,131.3090,228.7493,0,U,44349,999,38887,.82510159E-4,.1266E-4,0
FORMOSAT 7-4,2019-036M,2026-07-15T06:33:07.407360,14.96610033,.00011885,23.9978,265.1424,142.3824,217.6760,0,U,44350,999,38828,.87276854E-4,.1322E-4,0
FORMOSAT 7-2,2019-036N,2026-07-15T13:29:21.977088,14.96610547,.0000688,23.9989,317.5071,133.1454,226.9104,0,U,44351,999,38784,.1023E-3,.1497E-4,0
FORMOSAT 7-6,2019-036Q,2026-07-15T00:40:41.657952,14.96612380,.00013164,23.9966,141.9137,73.0571,287.0074,0,U,44353,999,38599,.96357791E-4,.1428E-4,0
FORMOSAT 7-5,2019-036V,2026-07-15T00:08:12.846336,14.96591580,.00003988,23.9987,80.8187,130.3890,229.6646,0,U,44358,999,38652,.10213756E-3,.1494E-4,0
METEOR-M2 2,2019-038A,2026-07-15T21:43:14.589408,14.24372068,.000069,98.9154,184.6163,2.0537,358.0643,0,U,44387,999,36538,-.95829E-4,-.267E-5,0
GLOBAL-4,2019-054E,2026-07-14T22:59:47.641920,15.67063678,.00053427,45.0057,75.8398,195.2427,164.8311,0,U,44499,999,38471,.34611685E-3,.37636E-3,0
ZY-1 02D,2019-059A,2026-07-15T20:37:31.912032,14.35267847,.0003107,98.6716,258.4179,297.0023,63.0844,0,U,44528,999,35845,-.15293E-4,-.89E-6,0
TAURUS-1 (JINNIUZUO 1),2019-059C,2026-07-15T20:32:00.498912,14.72373916,.0008037,98.6433,3.4712,213.4950,146.5748,0,U,44530,999,36286,.52496E-3,.3269E-4,0
ZHUHAI-1 03B,2019-060C,2026-07-15T21:15:29.657088,15.55659462,.0008469,97.5555,356.2397,202.7486,157.3394,0,U,44536,999,38078,.2876E-3,.19695E-3,0
ZHUHAI-1 03D,2019-060E,2026-07-15T21:02:41.028864,15.51370362,.0007558,97.5402,348.0997,188.5776,171.5347,0,U,44538,999,38052,.32181E-3,.18869E-3,0
ZHUHAI-1 03E,2019-060F,2026-07-15T20:53:05.322336,15.41936003,.0004408,97.5645,347.8362,272.7453,87.3289,0,U,44539,999,38018,.245E-3,.10335E-3,0
GAOFEN-7,2019-072A,2026-07-15T21:00:39.331872,15.21517147,.00174,97.5704,257.6144,301.3759,58.5774,0,U,44703,999,37200,.8794E-4,.1914E-4,0
JILIN-1 GAOFEN 2A,2019-075A,2026-07-15T19:06:04.761216,15.40024134,.0005126,97.4966,281.2683,352.8026,7.3145,0,U,44777,999,36928,.20244E-3,.7999E-4,0
NINGXIA-1 1,2019-076A,2026-07-15T19:51:08.098848,14.02042105,.0011525,45.0067,51.8642,292.3222,67.6390,0,U,44779,999,34187,.41134E-4,-.66E-6,0
NINGXIA-1 5,2019-076E,2026-07-15T20:08:51.308736,14.02089338,.0011403,45.0064,51.1416,283.1933,76.7629,0,U,44783,999,34179,-.50609E-4,-.208E-5,0
KL-ALPHA A,2019-077A,2026-07-15T19:46:09.902208,13.56045859,.0012367,88.9230,219.4326,35.1496,325.0472,0,U,44785,999,32961,.62593E-4,.56E-6,0
CARTOSAT-3,2019-081A,2026-07-15T19:23:21.443712,15.19186476,.0012999,97.4296,258.2117,56.8541,303.3939,0,U,44804,999,36781,.72342E-4,.1456E-4,0
JILIN-1 GAOFEN 2B,2019-086A,2026-07-15T18:25:24.445056,15.21003563,.0013289,97.4874,268.5832,213.6527,146.3866,0,U,44836,999,36483,.14989E-3,.326E-4,0
TIANQIN 1 (CAS-6),2019-093A,2026-07-15T20:38:17.700576,14.95564307,.0009961,97.7816,280.4940,325.9911,34.0670,0,U,44879,999,35633,.16565E-3,.178E-4,0
ETRSS-1,2019-093B,2026-07-15T20:35:57.041376,14.96012365,.0010072,97.7831,280.9771,325.9401,34.1172,0,U,44880,999,35634,.18059E-3,.1969E-4,0
TIANYAN 01,2019-093C,2026-07-15T20:29:53.456352,14.86559841,.0013571,97.7526,268.3858,359.4719,0.6480,0,U,44881,999,35567,-.1101E-4,-.151E-5,0
TIANYAN 02,2019-093D,2026-07-15T20:01:22.222272,15.05533911,.0012248,97.7937,291.9060,286.1650,73.8228,0,U,44882,999,35692,.1885E-3,.2652E-4,0
CBERS 4A,2019-093E,2026-07-15T20:43:09.311808,14.81443054,.0001455,98.0185,264.3263,131.2383,228.8955,0,U,44883,999,35532,.55308E-5,-.1E-6,0
WEILAI 1R,2019-093F,2026-07-15T20:35:15.300672,15.00869627,.001551,97.7894,286.7958,306.2032,53.7757,0,U,44884,999,35672,.18741E-3,.2327E-4,0
FLORIPASAT-1,2019-093G,2026-07-15T19:59:53.850624,15.04141583,.0010819,97.7926,291.2796,339.1908,20.8875,0,U,44885,999,35695,.70495E-4,.915E-5,0
SHUNTIAN,2019-093H,2026-07-15T20:24:19.489248,14.95278525,.0010888,97.8011,284.8660,335.5239,24.5463,0,U,44886,999,35646,.10123E-3,.1057E-4,0
